{
  "type": "FeatureCollection",
  "features": [
    {
      "type": "Feature",
      "properties": {
        "norad_id": 33913,
        "name": "COSMOS 2251 DEB",
        "group": "cosmos-2251-debris",
        "lat": 31.001850774375526,
        "lon": -33.56070592712179,
        "alt_km": 739.1645403248631,
        "timestamp": "2025-12-27T07:26:25.613542+00:00",
        "meta_object_name": "COSMOS 2251 DEB",
        "meta_object_id": "1993-036DS",
        "meta_epoch": "2025-12-26T21:30:57.165408",
        "meta_mean_motion": 14.48546591,
        "meta_eccentricity": 0.00481587,
        "meta_inclination": 74.0331,
        "meta_ra_of_asc_node": 157.1205,
        "meta_arg_of_pericenter": 257.0733,
        "meta_mean_anomaly": 255.4073,
        "meta_ephemeris_type": 0,
        "meta_classification_type": "U",
        "meta_norad_cat_id": 33913,
        "meta_element_set_no": 999,
        "meta_rev_at_epoch": 88662,
        "meta_bstar": 0.0007768336,
        "meta_mean_motion_dot": 2.934e-05,
        "meta_mean_motion_ddot": 0,
        "tle_line1": "1 33913U 93036DS  25360.89649497  .00002934  00000+0  77683-3 0  9993",
        "tle_line2": "2 33913  74.0331 157.1205 0048158 257.0733 255.4073 14.48546591886626"
      },
      "geometry": {
        "type": "Point",
        "coordinates": [
          -33.56070592712179,
          31.001850774375526
        ]
      }
    },
    {
      "type": "Feature",
      "properties": {
        "norad_id": 33914,
        "name": "COSMOS 2251 DEB",
        "group": "cosmos-2251-debris",
        "lat": 58.31835487688551,
        "lon": 18.6056576042752,
        "alt_km": 789.759700357291,
        "timestamp": "2025-12-27T07:26:25.613553+00:00",
        "meta_object_name": "COSMOS 2251 DEB",
        "meta_object_id": "1993-036DT",
        "meta_epoch": "2025-12-26T22:37:53.217120",
        "meta_mean_motion": 13.71993812,
        "meta_eccentricity": 0.03007766,
        "meta_inclination": 74.0912,
        "meta_ra_of_asc_node": 351.6873,
        "meta_arg_of_pericenter": 91.288,
        "meta_mean_anomaly": 320.4096,
        "meta_ephemeris_type": 0,
        "meta_classification_type": "U",
        "meta_norad_cat_id": 33914,
        "meta_element_set_no": 999,
        "meta_rev_at_epoch": 84276,
        "meta_bstar": 0.00032751083,
        "meta_mean_motion_dot": 3.91e-06,
        "meta_mean_motion_ddot": 0,
        "tle_line1": "1 33914U 93036DT  25360.94297705  .00000391  00000+0  32751-3 0  9993",
        "tle_line2": "2 33914  74.0912 351.6873 0300776  91.2880 320.4096 13.71993812842764"
      },
      "geometry": {
        "type": "Point",
        "coordinates": [
          18.6056576042752,
          58.31835487688551
        ]
      }
    },
    {
      "type": "Feature",
      "properties": {
        "norad_id": 33915,
        "name": "COSMOS 2251 DEB",
        "group": "cosmos-2251-debris",
        "lat": -67.06219469941743,
        "lon": -130.05730370302487,
        "alt_km": 850.0607135634245,
        "timestamp": "2025-12-27T07:26:25.613563+00:00",
        "meta_object_name": "COSMOS 2251 DEB",
        "meta_object_id": "1993-036DU",
        "meta_epoch": "2025-12-26T23:40:41.388960",
        "meta_mean_motion": 14.35114248,
        "meta_eccentricity": 0.01039692,
        "meta_inclination": 74.0429,
        "meta_ra_of_asc_node": 7.9959,
        "meta_arg_of_pericenter": 96.6892,
        "meta_mean_anomaly": 285.8295,
        "meta_ephemeris_type": 0,
        "meta_classification_type": "U",
        "meta_norad_cat_id": 33915,
        "meta_element_set_no": 999,
        "meta_rev_at_epoch": 87962,
        "meta_bstar": 0.0004053558,
        "meta_mean_motion_dot": 1.204e-05,
        "meta_mean_motion_ddot": 0,
        "tle_line1": "1 33915U 93036DU  25360.98659015  .00001204  00000+0  40536-3 0  9998",
        "tle_line2": "2 33915  74.0429   7.9959 0103969  96.6892 285.8295 14.35114248879620"
      },
      "geometry": {
        "type": "Point",
        "coordinates": [
          -130.05730370302487,
          -67.06219469941743
        ]
      }
    },
    {
      "type": "Feature",
      "properties": {
        "norad_id": 33916,
        "name": "COSMOS 2251 DEB",
        "group": "cosmos-2251-debris",
        "lat": 27.434335797409673,
        "lon": -171.88813262972113,
        "alt_km": 802.6782901976576,
        "timestamp": "2025-12-27T07:26:25.613573+00:00",
        "meta_object_name": "COSMOS 2251 DEB",
        "meta_object_id": "1993-036DV",
        "meta_epoch": "2025-12-26T11:59:17.834208",
        "meta_mean_motion": 13.68627159,
        "meta_eccentricity": 0.03247,
        "meta_inclination": 74.0518,
        "meta_ra_of_asc_node": 17.9793,
        "meta_arg_of_pericenter": 187.1665,
        "meta_mean_anomaly": 294.2626,
        "meta_ephemeris_type": 0,
        "meta_classification_type": "U",
        "meta_norad_cat_id": 33916,
        "meta_element_set_no": 999,
        "meta_rev_at_epoch": 84079,
        "meta_bstar": 0.00030166,
        "meta_mean_motion_dot": 3.52e-06,
        "meta_mean_motion_ddot": 0,
        "tle_line1": "1 33916U 93036DV  25360.49951197  .00000352  00000+0  30166-3 0  9992",
        "tle_line2": "2 33916  74.0518  17.9793 0324700 187.1665 294.2626 13.68627159840792"
      },
      "geometry": {
        "type": "Point",
        "coordinates": [
          -171.88813262972113,
          27.434335797409673
        ]
      }
    },
    {
      "type": "Feature",
      "properties": {
        "norad_id": 33917,
        "name": "COSMOS 2251 DEB",
        "group": "cosmos-2251-debris",
        "lat": -73.93501645576066,
        "lon": 16.89139204659036,
        "alt_km": 942.2202554969517,
        "timestamp": "2025-12-27T07:26:25.613583+00:00",
        "meta_object_name": "COSMOS 2251 DEB",
        "meta_object_id": "1993-036DW",
        "meta_epoch": "2025-12-26T07:20:03.177312",
        "meta_mean_motion": 13.69391507,
        "meta_eccentricity": 0.0331113,
        "meta_inclination": 74.1073,
        "meta_ra_of_asc_node": 100.15,
        "meta_arg_of_pericenter": 198.1562,
        "meta_mean_anomaly": 160.7505,
        "meta_ephemeris_type": 0,
        "meta_classification_type": "U",
        "meta_norad_cat_id": 33917,
        "meta_element_set_no": 999,
        "meta_rev_at_epoch": 83919,
        "meta_bstar": 0.0010824,
        "meta_mean_motion_dot": 1.361e-05,
        "meta_mean_motion_ddot": 0,
        "tle_line1": "1 33917U 93036DW  25360.30559233  .00001361  00000+0  10824-2 0  9997",
        "tle_line2": "2 33917  74.1073 100.1500 0331113 198.1562 160.7505 13.69391507839196"
      },
      "geometry": {
        "type": "Point",
        "coordinates": [
          16.89139204659036,
          -73.93501645576066
        ]
      }
    },
    {
      "type": "Feature",
      "properties": {
        "norad_id": 33920,
        "name": "COSMOS 2251 DEB",
        "group": "cosmos-2251-debris",
        "lat": -23.3802731125883,
        "lon": -96.35969331161022,
        "alt_km": 690.0964714927968,
        "timestamp": "2025-12-27T07:26:25.613593+00:00",
        "meta_object_name": "COSMOS 2251 DEB",
        "meta_object_id": "1993-036DZ",
        "meta_epoch": "2025-12-26T18:22:55.221888",
        "meta_mean_motion": 14.58488626,
        "meta_eccentricity": 0.00375878,
        "meta_inclination": 74.061,
        "meta_ra_of_asc_node": 271.7712,
        "meta_arg_of_pericenter": 276.1141,
        "meta_mean_anomaly": 83.5741,
        "meta_ephemeris_type": 0,
        "meta_classification_type": "U",
        "meta_norad_cat_id": 33920,
        "meta_element_set_no": 999,
        "meta_rev_at_epoch": 88319,
        "meta_bstar": 0.0016046025,
        "meta_mean_motion_dot": 7.502e-05,
        "meta_mean_motion_ddot": 0,
        "tle_line1": "1 33920U 93036DZ  25360.76591692  .00007502  00000+0  16046-2 0  9991",
        "tle_line2": "2 33920  74.0610 271.7712 0037587 276.1141  83.5741 14.58488626883195"
      },
      "geometry": {
        "type": "Point",
        "coordinates": [
          -96.35969331161022,
          -23.3802731125883
        ]
      }
    },
    {
      "type": "Feature",
      "properties": {
        "norad_id": 33922,
        "name": "COSMOS 2251 DEB",
        "group": "cosmos-2251-debris",
        "lat": 12.907998390323218,
        "lon": 124.2027827376691,
        "alt_km": 741.1705676940765,
        "timestamp": "2025-12-27T07:26:25.613603+00:00",
        "meta_object_name": "COSMOS 2251 DEB",
        "meta_object_id": "1993-036EB",
        "meta_epoch": "2025-12-26T10:09:19.550880",
        "meta_mean_motion": 14.49558695,
        "meta_eccentricity": 0.0023079,
        "meta_inclination": 74.0472,
        "meta_ra_of_asc_node": 122.1065,
        "meta_arg_of_pericenter": 231.2219,
        "meta_mean_anomaly": 195.9664,
        "meta_ephemeris_type": 0,
        "meta_classification_type": "U",
        "meta_norad_cat_id": 33922,
        "meta_element_set_no": 999,
        "meta_rev_at_epoch": 88776,
        "meta_bstar": 0.00055696,
        "meta_mean_motion_dot": 2.117e-05,
        "meta_mean_motion_ddot": 0,
        "tle_line1": "1 33922U 93036EB  25360.42314295  .00002117  00000+0  55696-3 0  9990",
        "tle_line2": "2 33922  74.0472 122.1065 0023079 231.2219 195.9664 14.49558695887765"
      },
      "geometry": {
        "type": "Point",
        "coordinates": [
          124.2027827376691,
          12.907998390323218
        ]
      }
    }
  ]
}